{"timestamp": "2023-08-27 16:07:42", "src_ip": "192.168.138.234", "dest_ip": "192.168.0.47", "protocol_id": 17, "sequence_number": 192, "payload": "{\"timestamp\": \"2023-08-27 16:06:52\", \"payload\": \"1   224U 61015BL  23202.79670351  .00000908  00000-0  55963-3 0  9996\\n2   224  66.7379 318.6752 0058243  58.8023  19.7942 14.09174335163210\", \"protocol_id\": 40, \"src_ip\": \"192.168.138.234\", \"dst_ip\": \"192.168.138.234\", \"sequence_number\": 208}"}
{"timestamp": "2023-08-27 16:07:42", "src_ip": "192.168.138.234", "dest_ip": "192.168.0.47", "protocol_id": 17, "sequence_number": 192, "payload": "{\"timestamp\": \"2023-08-27 16:07:02\", \"payload\": \"1   720U 63054C   23202.36525991  .00001000  00000-0  28978-3 0  9994\\n2   720  58.4736 320.6678 0112279 164.3650 196.0892 14.48010096127528\\n1   727U 64001A   23202.06025256  .00000048  00000-0  74591-4 0  9994\\n2   727  69.9064  50.0093 0015033 323.1750  36.8321 13.95508186 29428\\n1   728U 64001B   23202.42798892  .00000091  00000-0  10296-3 0  9997\\n2   728  69.9094 329.4767 0016061 274.2463  85.6807 13.97349047 31797\", \"protocol_id\": 82, \"src_ip\": \"192.168.138.234\", \"dst_ip\": \"192.168.138.234\", \"sequence_number\": 93}"}
{"timestamp": "2023-08-27 16:07:42", "src_ip": "192.168.138.234", "dest_ip": "192.168.0.47", "protocol_id": 17, "sequence_number": 192, "payload": "{\"timestamp\": \"2023-08-27 16:07:12\", \"payload\": \"1   416U 61015ER  23202.16376603  .00000756  00000-0  43754-3 0  9999\\n2   416  66.5216 122.8868 0074134 169.6371 190.6267 14.13050242182088\\n1   463U 61015EZ  23202.01655633  .00002624  00000-0  74164-3 0  9993\\n2   463  66.7715  40.3637 0054954 338.7221  21.1601 14.46323648215452\\n1   467U 61015FD  23202.55662021  .00001842  00000-0  23696-2 0  9999\\n2   467  66.5594  32.6738 0258884 249.8002 107.5044 13.51746355137511\", \"protocol_id\": 210, \"src_ip\": \"192.168.138.234\", \"dst_ip\": \"192.168.138.234\", \"sequence_number\": 98}"}
